{"type": "FeatureCollection", "features": [{"type": "Feature", "properties": {"norad_id": 2807, "name": "OPS 7218 (TRANSIT 16)", "group": "nnss", "lat": -63.47833165574065, "lon": 174.58139459349215, "alt_km": 1088.8277321965224, "timestamp": "2025-12-15T10:55:21.411219+00:00", "meta": {"OBJECT_NAME": "OPS 7218 (TRANSIT 16)", "OBJECT_ID": "1967-048A", "EPOCH": "2025-12-14T18:34:38.360640", "MEAN_MOTION": 13.50722587, "ECCENTRICITY": 0.0022033, "INCLINATION": 89.6733, "RA_OF_ASC_NODE": 353.9488, "ARG_OF_PERICENTER": 108.6359, "MEAN_ANOMALY": 64.8925, "EPHEMERIS_TYPE": 0, "CLASSIFICATION_TYPE": "U", "NORAD_CAT_ID": 2807, "ELEMENT_SET_NO": 999, "REV_AT_EPOCH": 88303, "BSTAR": 0.00018276667, "MEAN_MOTION_DOT": 1.28e-06, "MEAN_MOTION_DDOT": 0}, "tle": {"line1": "1 02807U 67048A   25348.77405510  .00000128  00000+0  18277-3 0  9991", "line2": "2 02807  89.6733 353.9488 0022033 108.6359  64.8925 13.50722587883033"}}, "geometry": {"type": "Point", "coordinates": [174.58139459349215, -63.47833165574065]}}, {"type": "Feature", "properties": {"norad_id": 2965, "name": "OPS 4947 (TRANSIT 17)", "group": "nnss", "lat": -25.195147344348584, "lon": 23.875428816346634, "alt_km": 1075.9600839801806, "timestamp": "2025-12-15T10:55:21.411242+00:00", "meta": {"OBJECT_NAME": "OPS 4947 (TRANSIT 17)", "OBJECT_ID": "1967-092A", "EPOCH": "2025-12-14T16:08:25.129248", "MEAN_MOTION": 13.53453942, "ECCENTRICITY": 0.00462991, "INCLINATION": 89.2495, "RA_OF_ASC_NODE": 24.2883, "ARG_OF_PERICENTER": 228.7003, "MEAN_ANOMALY": 254.8338, "EPHEMERIS_TYPE": 0, "CLASSIFICATION_TYPE": "U", "NORAD_CAT_ID": 2965, "ELEMENT_SET_NO": 999, "REV_AT_EPOCH": 87123, "BSTAR": 0.00021683981, "MEAN_MOTION_DOT": 1.58e-06, "MEAN_MOTION_DDOT": 0}, "tle": {"line1": "1 02965U 67092A   25348.67251307  .00000158  00000+0  21684-3 0  9996", "line2": "2 02965  89.2495  24.2883 0046299 228.7003 254.8338 13.53453942871233"}}, "geometry": {"type": "Point", "coordinates": [23.875428816346634, -25.195147344348584]}}, {"type": "Feature", "properties": {"norad_id": 3133, "name": "OPS 7034 (TRANSIT 18)", "group": "nnss", "lat": 75.5231883798925, "lon": 93.75501191933432, "alt_km": 1028.9821421935458, "timestamp": "2025-12-15T10:55:21.411255+00:00", "meta": {"OBJECT_NAME": "OPS 7034 (TRANSIT 18)", "OBJECT_ID": "1968-012A", "EPOCH": "2025-12-14T20:31:22.265184", "MEAN_MOTION": 13.51566099, "ECCENTRICITY": 0.0074059, "INCLINATION": 90.028, "RA_OF_ASC_NODE": 273.6448, "ARG_OF_PERICENTER": 163.0106, "MEAN_ANOMALY": 264.5526, "EPHEMERIS_TYPE": 0, "CLASSIFICATION_TYPE": "U", "NORAD_CAT_ID": 3133, "ELEMENT_SET_NO": 999, "REV_AT_EPOCH": 56947, "BSTAR": 0.0001510339, "MEAN_MOTION_DOT": 1.1e-06, "MEAN_MOTION_DDOT": 0}, "tle": {"line1": "1 03133U 68012A   25348.85511881  .00000110  00000+0  15103-3 0  9990", "line2": "2 03133  90.0280 273.6448 0074059 163.0106 264.5526 13.51566099569473"}}, "geometry": {"type": "Point", "coordinates": [93.75501191933432, 75.5231883798925]}}, {"type": "Feature", "properties": {"norad_id": 4507, "name": "NNSS 19 (TRANSIT 19)", "group": "nnss", "lat": 75.14390007601946, "lon": -125.48457814025181, "alt_km": 1169.4258784916028, "timestamp": "2025-12-15T10:55:21.411267+00:00", "meta": {"OBJECT_NAME": "NNSS 19 (TRANSIT 19)", "OBJECT_ID": "1970-067A", "EPOCH": "2025-12-14T22:06:29.146752", "MEAN_MOTION": 13.5131551, "ECCENTRICITY": 0.01704286, "INCLINATION": 90.0054, "RA_OF_ASC_NODE": 234.5355, "ARG_OF_PERICENTER": 287.0016, "MEAN_ANOMALY": 71.2521, "EPHEMERIS_TYPE": 0, "CLASSIFICATION_TYPE": "U", "NORAD_CAT_ID": 4507, "ELEMENT_SET_NO": 999, "REV_AT_EPOCH": 72251, "BSTAR": 0.0001402407, "MEAN_MOTION_DOT": 1.07e-06, "MEAN_MOTION_DDOT": 0}, "tle": {"line1": "1 04507U 70067A   25348.92117068  .00000107  00000+0  14024-3 0  9993", "line2": "2 04507  90.0054 234.5355 0170428 287.0016  71.2521 13.51315510722519"}}, "geometry": {"type": "Point", "coordinates": [-125.48457814025181, 75.14390007601946]}}, {"type": "Feature", "properties": {"norad_id": 6909, "name": "NNSS 20 (TRANSIT 20)", "group": "nnss", "lat": -18.676696711658487, "lon": -105.03511954758939, "alt_km": 995.309762580383, "timestamp": "2025-12-15T10:55:21.411278+00:00", "meta": {"OBJECT_NAME": "NNSS 20 (TRANSIT 20)", "OBJECT_ID": "1973-081A", "EPOCH": "2025-12-14T19:15:12.693600", "MEAN_MOTION": 13.71435217, "ECCENTRICITY": 0.01566172, "INCLINATION": 89.8563, "RA_OF_ASC_NODE": 255.0233, "ARG_OF_PERICENTER": 72.2135, "MEAN_ANOMALY": 289.6047, "EPHEMERIS_TYPE": 0, "CLASSIFICATION_TYPE": "U", "NORAD_CAT_ID": 6909, "ELEMENT_SET_NO": 999, "REV_AT_EPOCH": 80389, "BSTAR": 0.00026960944, "MEAN_MOTION_DOT": 2.76e-06, "MEAN_MOTION_DDOT": 0}, "tle": {"line1": "1 06909U 73081A   25348.80223025  .00000276  00000+0  26961-3 0  9998", "line2": "2 06909  89.8563 255.0233 0156617  72.2135 289.6047 13.71435217803899"}}, "geometry": {"type": "Point", "coordinates": [-105.03511954758939, -18.676696711658487]}}, {"type": "Feature", "properties": {"norad_id": 10457, "name": "TRANSAT", "group": "nnss", "lat": 55.71637775553517, "lon": 79.01723879227424, "alt_km": 1082.0457971230207, "timestamp": "2025-12-15T10:55:21.411289+00:00", "meta": {"OBJECT_NAME": "TRANSAT", "OBJECT_ID": "1977-106A", "EPOCH": "2025-12-14T19:10:47.823168", "MEAN_MOTION": 13.4894395, "ECCENTRICITY": 0.00255933, "INCLINATION": 89.6482, "RA_OF_ASC_NODE": 78.5241, "ARG_OF_PERICENTER": 183.516, "MEAN_ANOMALY": 288.9959, "EPHEMERIS_TYPE": 0, "CLASSIFICATION_TYPE": "U", "NORAD_CAT_ID": 10457, "ELEMENT_SET_NO": 999, "REV_AT_EPOCH": 36771, "BSTAR": 0.00011793617, "MEAN_MOTION_DOT": 8.4e-07, "MEAN_MOTION_DDOT": 0}, "tle": {"line1": "1 10457U 77106A   25348.79916462  .00000084  00000+0  11794-3 0  9990", "line2": "2 10457  89.6482  78.5241 0025593 183.5160 288.9959 13.48943950367711"}}, "geometry": {"type": "Point", "coordinates": [79.01723879227424, 55.71637775553517]}}, {"type": "Feature", "properties": {"norad_id": 12458, "name": "NOVA 1", "group": "nnss", "lat": 66.87140730482406, "lon": 91.69221683051536, "alt_km": 1155.404514325125, "timestamp": "2025-12-15T10:55:21.411299+00:00", "meta": {"OBJECT_NAME": "NOVA 1", "OBJECT_ID": "1981-044A", "EPOCH": "2025-12-14T20:41:11.154624", "MEAN_MOTION": 13.23278711, "ECCENTRICITY": 0.00159174, "INCLINATION": 89.8525, "RA_OF_ASC_NODE": 91.3551, "ARG_OF_PERICENTER": 98.7846, "MEAN_ANOMALY": 24.0904, "EPHEMERIS_TYPE": 0, "CLASSIFICATION_TYPE": "U", "NORAD_CAT_ID": 12458, "ELEMENT_SET_NO": 999, "REV_AT_EPOCH": 15214, "BSTAR": 0.00010101273, "MEAN_MOTION_DOT": 5.2e-07, "MEAN_MOTION_DDOT": 0}, "tle": {"line1": "1 12458U 81044A   25348.86193466  .00000052  00000+0  10101-3 0  9994", "line2": "2 12458  89.8525  91.3551 0015917  98.7846  24.0904 13.23278711152145"}}, "geometry": {"type": "Point", "coordinates": [91.69221683051536, 66.87140730482406]}}, {"type": "Feature", "properties": {"norad_id": 15362, "name": "NOVA 3", "group": "nnss", "lat": -62.81039221778459, "lon": 80.80517912475688, "alt_km": 1159.938732960015, "timestamp": "2025-12-15T10:55:21.411309+00:00", "meta": {"OBJECT_NAME": "NOVA 3", "OBJECT_ID": "1984-110A", "EPOCH": "2025-12-14T19:29:24.986400", "MEAN_MOTION": 13.23044807, "ECCENTRICITY": 0.0030352, "INCLINATION": 90.1224, "RA_OF_ASC_NODE": 80.5592, "ARG_OF_PERICENTER": 326.0104, "MEAN_ANOMALY": 150.5145, "EPHEMERIS_TYPE": 0, "CLASSIFICATION_TYPE": "U", "NORAD_CAT_ID": 15362, "ELEMENT_SET_NO": 999, "REV_AT_EPOCH": 98726, "BSTAR": 8.1888046e-05, "MEAN_MOTION_DOT": 4.3e-07, "MEAN_MOTION_DDOT": 0}, "tle": {"line1": "1 15362U 84110A   25348.81209475  .00000043  00000+0  81888-4 0  9992", "line2": "2 15362  90.1224  80.5592 0030352 326.0104 150.5145 13.23044807987260"}}, "geometry": {"type": "Point", "coordinates": [80.80517912475688, -62.81039221778459]}}, {"type": "Feature", "properties": {"norad_id": 15935, "name": "OSCAR 30", "group": "nnss", "lat": 32.67359689729801, "lon": -80.00256046649206, "alt_km": 1078.5164428359203, "timestamp": "2025-12-15T10:55:21.411320+00:00", "meta": {"OBJECT_NAME": "OSCAR 30", "OBJECT_ID": "1985-066A", "EPOCH": "2025-12-14T20:22:32.017152", "MEAN_MOTION": 13.36078582, "ECCENTRICITY": 0.01693766, "INCLINATION": 90.1653, "RA_OF_ASC_NODE": 99.8815, "ARG_OF_PERICENTER": 78.0202, "MEAN_ANOMALY": 33.6979, "EPHEMERIS_TYPE": 0, "CLASSIFICATION_TYPE": "U", "NORAD_CAT_ID": 15935, "ELEMENT_SET_NO": 999, "REV_AT_EPOCH": 96481, "BSTAR": 0.00012434698, "MEAN_MOTION_DOT": 7.9e-07, "MEAN_MOTION_DDOT": 0}, "tle": {"line1": "1 15935U 85066A   25348.84898168  .00000079  00000+0  12435-3 0  9995", "line2": "2 15935  90.1653  99.8815 0169376  78.0202  33.6979 13.36078582964818"}}, "geometry": {"type": "Point", "coordinates": [-80.00256046649206, 32.67359689729801]}}, {"type": "Feature", "properties": {"norad_id": 15936, "name": "OSCAR 24", "group": "nnss", "lat": -40.77121335448792, "lon": -87.80117516156554, "alt_km": 1225.0035894414614, "timestamp": "2025-12-15T10:55:21.411331+00:00", "meta": {"OBJECT_NAME": "OSCAR 24", "OBJECT_ID": "1985-066B", "EPOCH": "2025-12-14T20:00:30.218976", "MEAN_MOTION": 13.35936139, "ECCENTRICITY": 0.01704669, "INCLINATION": 90.1791, "RA_OF_ASC_NODE": 92.3424, "ARG_OF_PERICENTER": 84.4967, "MEAN_ANOMALY": 27.9488, "EPHEMERIS_TYPE": 0, "CLASSIFICATION_TYPE": "U", "NORAD_CAT_ID": 15936, "ELEMENT_SET_NO": 999, "REV_AT_EPOCH": 96671, "BSTAR": 0.00013138932, "MEAN_MOTION_DOT": 8.3e-07, "MEAN_MOTION_DDOT": 0}, "tle": {"line1": "1 15936U 85066B   25348.83368309  .00000083  00000+0  13139-3 0  9991", "line2": "2 15936  90.1791  92.3424 0170466  84.4967  27.9488 13.35936139966719"}}, "geometry": {"type": "Point", "coordinates": [-87.80117516156554, -40.77121335448792]}}]}